{"fetched_at":"2026-07-16T06:42:58.427Z","source":"https://celestrak.org/NORAD/elements/gp.php?NAME=HAWK&FORMAT=JSON","constellation":"hawkeye-360","records":[{"OBJECT_NAME":"HAWK-7B","OBJECT_ID":"2023-054R","EPOCH":"2026-07-15T17:42:01.205280","CLASSIFICATION_TYPE":"U","MEAN_MOTION":15.27634662,"ECCENTRICITY":0.00012492,"INCLINATION":97.2688,"RA_OF_ASC_NODE":81.623,"ARG_OF_PERICENTER":15.9411,"MEAN_ANOMALY":344.1868,"EPHEMERIS_TYPE":0,"NORAD_CAT_ID":56193,"ELEMENT_SET_NO":999,"REV_AT_EPOCH":18138,"BSTAR":0.0001207816,"MEAN_MOTION_DOT":0.0000319,"MEAN_MOTION_DDOT":0},{"OBJECT_NAME":"HAWK-7C","OBJECT_ID":"2023-054Y","EPOCH":"2026-07-15T12:58:52.140000","CLASSIFICATION_TYPE":"U","MEAN_MOTION":15.27636055,"ECCENTRICITY":0.0000883,"INCLINATION":97.2664,"RA_OF_ASC_NODE":82.1915,"ARG_OF_PERICENTER":353.999,"MEAN_ANOMALY":6.1239,"EPHEMERIS_TYPE":0,"NORAD_CAT_ID":56200,"ELEMENT_SET_NO":999,"REV_AT_EPOCH":18135,"BSTAR":0.00011954,"MEAN_MOTION_DOT":0.00003157,"MEAN_MOTION_DDOT":0},{"OBJECT_NAME":"HAWK-8A","OBJECT_ID":"2024-066B","EPOCH":"2026-07-15T19:56:58.517376","CLASSIFICATION_TYPE":"U","MEAN_MOTION":14.99290672,"ECCENTRICITY":0.00030181,"INCLINATION":45.5955,"RA_OF_ASC_NODE":128.5276,"ARG_OF_PERICENTER":223.217,"MEAN_ANOMALY":136.8475,"EPHEMERIS_TYPE":0,"NORAD_CAT_ID":59443,"ELEMENT_SET_NO":999,"REV_AT_EPOCH":12413,"BSTAR":0.00012534895,"MEAN_MOTION_DOT":0.00001322,"MEAN_MOTION_DDOT":0},{"OBJECT_NAME":"HAWK-8B","OBJECT_ID":"2024-066D","EPOCH":"2026-07-15T05:34:06.753504","CLASSIFICATION_TYPE":"U","MEAN_MOTION":14.99281358,"ECCENTRICITY":0.00031385,"INCLINATION":45.6178,"RA_OF_ASC_NODE":133.6064,"ARG_OF_PERICENTER":223.6026,"MEAN_ANOMALY":136.4608,"EPHEMERIS_TYPE":0,"NORAD_CAT_ID":59445,"ELEMENT_SET_NO":999,"REV_AT_EPOCH":12403,"BSTAR":0.000044094056,"MEAN_MOTION_DOT":0.00000315,"MEAN_MOTION_DDOT":0},{"OBJECT_NAME":"HAWK-9A","OBJECT_ID":"2024-066E","EPOCH":"2026-07-15T20:30:34.330464","CLASSIFICATION_TYPE":"U","MEAN_MOTION":14.9921648,"ECCENTRICITY":0.00028354,"INCLINATION":45.6094,"RA_OF_ASC_NODE":129.0519,"ARG_OF_PERICENTER":208.9275,"MEAN_ANOMALY":151.145,"EPHEMERIS_TYPE":0,"NORAD_CAT_ID":59446,"ELEMENT_SET_NO":999,"REV_AT_EPOCH":12413,"BSTAR":0.000069077581,"MEAN_MOTION_DOT":0.00000623,"MEAN_MOTION_DDOT":0},{"OBJECT_NAME":"HAWK-9C","OBJECT_ID":"2024-066G","EPOCH":"2026-07-15T22:06:54.650304","CLASSIFICATION_TYPE":"U","MEAN_MOTION":14.99214929,"ECCENTRICITY":0.00026857,"INCLINATION":45.6064,"RA_OF_ASC_NODE":127.8049,"ARG_OF_PERICENTER":193.7639,"MEAN_ANOMALY":166.317,"EPHEMERIS_TYPE":0,"NORAD_CAT_ID":59448,"ELEMENT_SET_NO":999,"REV_AT_EPOCH":12414,"BSTAR":0.000056066211,"MEAN_MOTION_DOT":0.00000462,"MEAN_MOTION_DDOT":0},{"OBJECT_NAME":"HAWK-8C","OBJECT_ID":"2024-066H","EPOCH":"2026-07-15T05:33:19.757952","CLASSIFICATION_TYPE":"U","MEAN_MOTION":14.99289661,"ECCENTRICITY":0.00027884,"INCLINATION":45.6072,"RA_OF_ASC_NODE":132.6268,"ARG_OF_PERICENTER":229.8684,"MEAN_ANOMALY":130.1954,"EPHEMERIS_TYPE":0,"NORAD_CAT_ID":59449,"ELEMENT_SET_NO":999,"REV_AT_EPOCH":12403,"BSTAR":0.000062760364,"MEAN_MOTION_DOT":0.00000546,"MEAN_MOTION_DDOT":0},{"OBJECT_NAME":"HAWK-9B","OBJECT_ID":"2024-066J","EPOCH":"2026-07-15T04:31:27.105888","CLASSIFICATION_TYPE":"U","MEAN_MOTION":14.9921022,"ECCENTRICITY":0.00028333,"INCLINATION":45.6118,"RA_OF_ASC_NODE":133.4315,"ARG_OF_PERICENTER":185.1928,"MEAN_ANOMALY":174.8924,"EPHEMERIS_TYPE":0,"NORAD_CAT_ID":59450,"ELEMENT_SET_NO":999,"REV_AT_EPOCH":12403,"BSTAR":0.000070669816,"MEAN_MOTION_DOT":0.00000643,"MEAN_MOTION_DDOT":0},{"OBJECT_NAME":"HAWK-10A","OBJECT_ID":"2024-149CA","EPOCH":"2026-07-15T18:52:22.939104","CLASSIFICATION_TYPE":"U","MEAN_MOTION":14.96592968,"ECCENTRICITY":0.00030433,"INCLINATION":97.689,"RA_OF_ASC_NODE":272.2064,"ARG_OF_PERICENTER":0.8178,"MEAN_ANOMALY":359.3048,"EPHEMERIS_TYPE":0,"NORAD_CAT_ID":60540,"ELEMENT_SET_NO":999,"REV_AT_EPOCH":10426,"BSTAR":0.000021604796,"MEAN_MOTION_DOT":0.00000189,"MEAN_MOTION_DDOT":0},{"OBJECT_NAME":"HAWK-10B","OBJECT_ID":"2024-149CF","EPOCH":"2026-07-15T18:52:11.153280","CLASSIFICATION_TYPE":"U","MEAN_MOTION":14.96591844,"ECCENTRICITY":0.00053953,"INCLINATION":97.6808,"RA_OF_ASC_NODE":271.5325,"ARG_OF_PERICENTER":12.3131,"MEAN_ANOMALY":347.8222,"EPHEMERIS_TYPE":0,"NORAD_CAT_ID":60545,"ELEMENT_SET_NO":999,"REV_AT_EPOCH":10426,"BSTAR":0.000022051807,"MEAN_MOTION_DOT":0.00000194,"MEAN_MOTION_DDOT":0},{"OBJECT_NAME":"HAWK-10C","OBJECT_ID":"2024-149DM","EPOCH":"2026-07-15T18:52:40.321920","CLASSIFICATION_TYPE":"U","MEAN_MOTION":14.96590486,"ECCENTRICITY":0.0002612,"INCLINATION":97.6726,"RA_OF_ASC_NODE":270.8423,"ARG_OF_PERICENTER":346.6294,"MEAN_ANOMALY":13.4858,"EPHEMERIS_TYPE":0,"NORAD_CAT_ID":60575,"ELEMENT_SET_NO":999,"REV_AT_EPOCH":10426,"BSTAR":0.000023957195,"MEAN_MOTION_DOT":0.00000216,"MEAN_MOTION_DDOT":0},{"OBJECT_NAME":"HAWK-11B","OBJECT_ID":"2024-247C","EPOCH":"2026-07-15T04:05:21.734016","CLASSIFICATION_TYPE":"U","MEAN_MOTION":15.30667274,"ECCENTRICITY":0.00029497,"INCLINATION":45.0147,"RA_OF_ASC_NODE":136.3162,"ARG_OF_PERICENTER":21.7181,"MEAN_ANOMALY":338.3828,"EPHEMERIS_TYPE":0,"NORAD_CAT_ID":62379,"ELEMENT_SET_NO":999,"REV_AT_EPOCH":8729,"BSTAR":0.00015126047,"MEAN_MOTION_DOT":0.00004266,"MEAN_MOTION_DDOT":0},{"OBJECT_NAME":"HAWK-11C","OBJECT_ID":"2024-247E","EPOCH":"2026-07-15T05:38:41.286048","CLASSIFICATION_TYPE":"U","MEAN_MOTION":15.30663926,"ECCENTRICITY":0.00038814,"INCLINATION":45.0036,"RA_OF_ASC_NODE":135.2913,"ARG_OF_PERICENTER":9.5108,"MEAN_ANOMALY":350.585,"EPHEMERIS_TYPE":0,"NORAD_CAT_ID":62381,"ELEMENT_SET_NO":999,"REV_AT_EPOCH":8730,"BSTAR":0.0001470499,"MEAN_MOTION_DOT":0.00004138,"MEAN_MOTION_DDOT":0},{"OBJECT_NAME":"HAWK-11A","OBJECT_ID":"2024-247F","EPOCH":"2026-07-15T05:38:49.028352","CLASSIFICATION_TYPE":"U","MEAN_MOTION":15.30659939,"ECCENTRICITY":0.00033166,"INCLINATION":44.9928,"RA_OF_ASC_NODE":134.6194,"ARG_OF_PERICENTER":9.659,"MEAN_ANOMALY":350.4358,"EPHEMERIS_TYPE":0,"NORAD_CAT_ID":62382,"ELEMENT_SET_NO":999,"REV_AT_EPOCH":8730,"BSTAR":0.00014274696,"MEAN_MOTION_DOT":0.00004008,"MEAN_MOTION_DDOT":0},{"OBJECT_NAME":"HAWK-12C","OBJECT_ID":"2025-138A","EPOCH":"2026-07-15T12:19:03.558432","CLASSIFICATION_TYPE":"U","MEAN_MOTION":15.18407563,"ECCENTRICITY":0.00152556,"INCLINATION":97.435,"RA_OF_ASC_NODE":198.4799,"ARG_OF_PERICENTER":50.2976,"MEAN_ANOMALY":309.9601,"EPHEMERIS_TYPE":0,"NORAD_CAT_ID":64621,"ELEMENT_SET_NO":999,"REV_AT_EPOCH":5816,"BSTAR":0.00010957784,"MEAN_MOTION_DOT":0.00002192,"MEAN_MOTION_DDOT":0},{"OBJECT_NAME":"HAWK-12B","OBJECT_ID":"2025-138B","EPOCH":"2026-07-15T21:48:41.373216","CLASSIFICATION_TYPE":"U","MEAN_MOTION":15.18408186,"ECCENTRICITY":0.00140866,"INCLINATION":97.4471,"RA_OF_ASC_NODE":199.5633,"ARG_OF_PERICENTER":45.276,"MEAN_ANOMALY":314.9618,"EPHEMERIS_TYPE":0,"NORAD_CAT_ID":64622,"ELEMENT_SET_NO":999,"REV_AT_EPOCH":5822,"BSTAR":0.00010368617,"MEAN_MOTION_DOT":0.0000207,"MEAN_MOTION_DDOT":0}]}
