HAWK-7B                 
1 56193U 23054R   26196.73751395  .00003190  00000+0  12078-3 0  9995
2 56193  97.2688  81.6230 0001249  15.9411 344.1868 15.27634662181380
HAWK-7C                 
1 56200U 23054Y   26196.54088125  .00003157  00000+0  11954-3 0  9992
2 56200  97.2664  82.1915 0000883 353.9990   6.1239 15.27636055181351
HAWK-8A                 
1 59443U 24066B   26196.83123284  .00001322  00000+0  12535-3 0  9994
2 59443  45.5955 128.5276 0003018 223.2170 136.8475 14.99290672124134
HAWK-8B                 
1 59445U 24066D   26196.23202261  .00000315  00000+0  44094-4 0  9990
2 59445  45.6178 133.6064 0003138 223.6026 136.4608 14.99281358124037
HAWK-9A                 
1 59446U 24066E   26196.85456401  .00000623  00000+0  69078-4 0  9997
2 59446  45.6094 129.0519 0002835 208.9275 151.1450 14.99216480124138
HAWK-9C                 
1 59448U 24066G   26196.92146586  .00000462  00000+0  56066-4 0  9991
2 59448  45.6064 127.8049 0002685 193.7639 166.3170 14.99214929124143
HAWK-8C                 
1 59449U 24066H   26196.23147868  .00000546  00000+0  62760-4 0  9991
2 59449  45.6072 132.6268 0002788 229.8684 130.1954 14.99289661124037
HAWK-9B                 
1 59450U 24066J   26196.18850817  .00000643  00000+0  70670-4 0  9999
2 59450  45.6118 133.4315 0002833 185.1928 174.8924 14.99210220124035
HAWK-10A                
1 60540U 24149CA  26196.78637661  .00000189  00000+0  21605-4 0  9998
2 60540  97.6890 272.2064 0003043   0.8178 359.3048 14.96592968104267
HAWK-10B                
1 60545U 24149CF  26196.78624020  .00000194  00000+0  22052-4 0  9991
2 60545  97.6808 271.5325 0005395  12.3131 347.8222 14.96591844104260
HAWK-10C                
1 60575U 24149DM  26196.78657780  .00000216  00000+0  23957-4 0  9993
2 60575  97.6726 270.8423 0002612 346.6294  13.4858 14.96590486104267
HAWK-11B                
1 62379U 24247C   26196.17039044  .00004266  00000+0  15126-3 0  9993
2 62379  45.0147 136.3162 0002949  21.7181 338.3828 15.30667274 87298
HAWK-11C                
1 62381U 24247E   26196.23520007  .00004138  00000+0  14705-3 0  9997
2 62381  45.0036 135.2913 0003881   9.5108 350.5850 15.30663926 87302
HAWK-11A                
1 62382U 24247F   26196.23528968  .00004008  00000+0  14275-3 0  9990
2 62382  44.9928 134.6194 0003316   9.6590 350.4358 15.30659939 87305
HAWK-12C                
1 64621U 25138A   26196.51323563  .00002192  00000+0  10958-3 0  9999
2 64621  97.4350 198.4799 0015255  50.2976 309.9601 15.18407563 58161
HAWK-12B                
1 64622U 25138B   26196.90881219  .00002070  00000+0  10369-3 0  9991
2 64622  97.4471 199.5633 0014086  45.2760 314.9618 15.18408186 58224
